satname,norad_id,inclination_deg,eccentricity,mean_motion_rev_per_day,perigee_km,apogee_km,l1,l2
STARLINK-1168,45072,53.0526,0.000139,15.06401368,546.2447423517133,548.1699880852439,1 45072U 20006AE  25308.86217684  .00003617  00000+0  26161-3 0  9991,2 45072  53.0526 106.9894 0001390  91.6259 268.4890 15.06401368317926
STARLINK-1172,45074,53.0536,0.0001239,15.06395233,546.3681156486991,548.0842206417647,1 45074U 20006AG  25309.13863204  .00000888  00000+0  78510-4 0  9992,2 45074  53.0536 105.7501 0001239  82.8853 277.2277 15.06395233317969
STARLINK-1153,45080,53.0524,0.0001486,15.06411199,546.1481331335726,548.2063365241638,1 45080U 20006AN  25308.85111993  .00004234  00000+0  30289-3 0  9997,2 45080  53.0524 107.0389 0001486  89.2773 270.8386 15.06411199317924
STARLINK-1151,45081,53.0497,8.03e-05,15.06410163,546.6243069941138,547.7365129701575,1 45081U 20006AP  25309.16811101  .00003107  00000+0  22729-3 0  9999,2 45081  53.0497 105.6900 0000803  99.0639 261.0441 15.06410163317978
STARLINK-1190,45083,53.0393,0.0004071,15.93151788,290.7532021355455,296.18522391419083,1 45083U 20006AR  25309.33336806  .00301336  45840-4  84340-3 0  9992,2 45083  53.0393  52.6287 0004071 307.3522 262.4079 15.93151788  5912
STARLINK-1185,45087,53.0545,0.0001286,15.06395457,546.3348799988225,548.1160832290943,1 45087U 20006AV  25309.07781379  .00000438  00000+0  48318-4 0  9995,2 45087  53.0545  86.0202 0001286  87.5037 272.6099 15.06395457318241
STARLINK-1183,45088,53.0538,0.0001379,15.06397401,546.264516845813,548.174530174997,1 45088U 20006AW  25308.83453977  .00000808  00000+0  73162-4 0  9995,2 45088  53.0538  87.1143 0001379  91.3213 268.7934 15.06397401318203
STARLINK-1142,45093,53.035,0.0005478,15.63071688,375.08881247962563,382.4917019826489,1 45093U 20006BB  25309.33336806  .00114858  00000+0  12265-2 0  9994,2 45093  53.0350  16.2137 0005478   9.3504  59.4377 15.63071688  5908
STARLINK-1152,45096,53.0526,0.0006173,15.24494737,488.061937721307,496.5441830198406,1 45096U 20006BE  25308.72296947  .00028822  00000+0  11660-2 0  9993,2 45096  53.0526  69.2989 0006173 201.9747 158.0986 15.24494737318440
STARLINK-1184,45098,53.0524,0.0001319,15.06399497,546.2996458831294,548.1265532393936,1 45098U 20006BG  25308.78293719  .00000951  00000+0  82706-4 0  9999,2 45098  53.0524  87.3449 0001319  89.3909 270.7231 15.06399497318191
STARLINK-1193,45100,53.0522,0.0001496,15.0640677,546.1547799008249,548.2268379812604,1 45100U 20006BJ  25308.77924326 -.00000646  00000+0 -24487-4 0  9992,2 45100  53.0522  87.3587 0001496  98.0324 262.0834 15.06406770318196
STARLINK-1143,45179,53.0538,0.0008985,15.41232769,436.3415605722794,448.5981911281815,1 45179U 20012B   25308.99256661  .00061739  00000+0  14593-2 0  9992,2 45179  53.0538 209.0002 0008985  72.2860 287.9125 15.41232769316576
STARLINK-1202,45183,53.0555,0.0001729,15.06399652,546.0152315582845,548.4100174584391,1 45183U 20012F   25309.10730197  .00000124  00000+0  27197-4 0  9999,2 45183  53.0555 245.8928 0001729 100.8066 259.3118 15.06399652316065
STARLINK-1216,45185,53.0549,0.0001947,15.06406377,545.8436518617682,548.5403749795942,1 45185U 20012H   25309.09993004  .00006020  00000+0  42266-3 0  9991,2 45185  53.0549 245.9218 0001947 101.9741 258.1467 15.06406377316008
STARLINK-1225,45187,53.0542,0.0001418,15.06387863,546.2667366447349,548.2307760452331,1 45187U 20012K   25309.11835890 -.00005857  00000+0 -37477-3 0  9991,2 45187  53.0542 245.8405 0001418 100.4971 259.6178 15.06387863316050
STARLINK-1230,45189,53.0548,0.0001713,15.06392031,546.049665491405,548.4222982749989,1 45189U 20012M   25309.12204626 -.00005547  00000+0 -35384-3 0  9992,2 45189  53.0548 245.8271 0001713 102.0271 258.0910 15.06392031313280
STARLINK-1234,45190,53.054,0.0003129,15.36593585,454.0527394339051,458.32966202191983,1 45190U 20012N   25308.96741971  .00058900  00000+0  16228-2 0  9998,2 45190  53.0540 202.5820 0003129 114.4037 245.7292 15.36593585316553
STARLINK-1269,45197,53.0542,0.0001517,15.06385908,546.2041662971478,548.3053301535583,1 45197U 20012V   25309.13310627 -.00006880  00000+0 -44360-3 0  9996,2 45197  53.0542 245.7781 0001517  83.7887 276.3275 15.06385908316036
STARLINK-1154,45198,53.0538,0.0001519,15.06392777,546.1817316727875,548.2856592900753,1 45198U 20012W   25309.05754235  .00010982  00000+0  75512-3 0  9994,2 45198  53.0538 226.1144 0001519  72.2415 287.8739 15.06392777316270
STARLINK-1199,45201,53.0553,0.0001568,15.06375064,546.2020776035679,548.3738908786263,1 45201U 20012Z   25309.06859325 -.00009064  00000+0 -59073-3 0  9991,2 45201  53.0553 226.0659 0001568  77.0694 283.0470 15.06375064316335
STARLINK-1209,45206,53.0551,0.0002179,15.30587578,472.5649822707892,475.5511688847255,1 45206U 20012AE  25309.17428125  .00048300  00000+0  16127-2 0  9994,2 45206  53.0551 202.4090 0002179 111.9395 248.1837 15.30587578315723
STARLINK-1210,45207,53.0218,0.0012409,15.57379764,386.8386712753827,403.6488476442091,1 45207U 20012AF  25308.86890856  .00105209  00000+0  13950-2 0  9997,2 45207  53.0218 165.2168 0012409  80.0321 280.2090 15.57379764317172
STARLINK-1231,45212,53.0518,0.0006991,15.12561701,523.5626158737305,533.219323280794,1 45212U 20012AL  25309.06570154  .00016597  00000+0  95512-3 0  9998,2 45212  53.0518 224.2208 0006991  62.1222 298.0477 15.12561701316318
STARLINK-1271,45217,53.0541,0.0001283,15.06388884,546.3571004957275,548.1341536778382,1 45217U 20012AR  25309.05385815 -.00003500  00000+0 -21628-3 0  9999,2 45217  53.0541 226.1309 0001283  98.3826 261.7308 15.06388884316336
STARLINK-1191,45222,53.0549,0.0001771,15.06393511,546.0049631083193,548.4579286118424,1 45222U 20012AW  25308.99671817 -.00005646  00000+0 -36050-3 0  9995,2 45222  53.0549 206.3870 0001771  99.1570 260.9620 15.06393511316601
STARLINK-1212,45223,53.0556,0.0001583,15.06394451,546.1322795073602,548.3248502452007,1 45223U 20012AX  25309.01523045 -.00005995  00000+0 -38398-3 0  9993,2 45223  53.0556 206.9591 0001583  89.9536 270.1634 15.06394451316608
STARLINK-1215,45225,53.0538,0.0001341,15.06385468,546.3274015690558,548.1847919976126,1 45225U 20012AZ  25309.03727239 -.00003782  00000+0 -23521-3 0  9992,2 45225  53.0538 206.2047 0001341  85.1708 274.9434 15.06385468316563
STARLINK-1221,45227,53.0662,0.0002534,15.36873478,453.6297955847849,457.09301257597326,1 45227U 20012BB  25309.26226598  .00015750  00000+0  44027-3 0  9991,2 45227  53.0662 137.0109 0002534   7.7418 352.3623 15.36873478317542
STARLINK-1222,45228,53.0543,0.0001543,15.06384258,546.1912165941103,548.3283940482324,1 45228U 20012BC  25309.00409501 -.00007176  00000+0 -46355-3 0  9992,2 45228  53.0543 206.3542 0001543  74.4425 285.6734 15.06384258316494
STARLINK-1226,45229,53.0535,0.0001237,15.06384469,546.402487120552,548.1158301301966,1 45229U 20012BD  25309.03358626 -.00003869  00000+0 -24106-3 0  9992,2 45229  53.0535 206.2203 0001237  87.2413 272.8717 15.06384469316503
STARLINK-1227,45230,53.0541,0.0001398,15.06385595,546.2875376398815,548.2238774409088,1 45230U 20012BE  25309.02990096 -.00005849  00000+0 -37424-3 0  9993,2 45230  53.0541 206.2374 0001398  98.7203 261.3945 15.06385595316623
STARLINK-1246,45235,53.0548,0.0001496,15.06394341,546.1928672735876,548.2649367514696,1 45235U 20012BK  25309.11099297 -.00000764  00000+0 -32379-4 0  9997,2 45235  53.0548 245.8737 0001496  88.4102 271.7058 15.06394341316089
STARLINK-1270,45237,53.0538,0.0001693,15.06409806,546.0090477008825,548.3539605463802,1 45237U 20012BM  25308.45120436 -.00000685  00000+0 -27106-4 0  9999,2 45237  53.0538 208.8366 0001693  90.1473 269.9710 15.06409806316523
STARLINK-1279,45360,53.0528,0.000327,15.3469981,459.5756233578895,464.04895019143896,1 45360U 20019A   25309.27213129  .00085221  00000+0  24807-2 0  9996,2 45360  53.0528 331.6390 0003270  26.4827 333.6341 15.34699810311430
STARLINK-1301,45361,53.0525,0.0003034,15.37229031,452.2346982229283,456.38062564378924,1 45361U 20019B   25309.22767732  .00114983  00000+0  30710-2 0  9994,2 45361  53.0525 341.4932 0003034  17.3527 342.7578 15.37229031311309
STARLINK-1306,45362,53.0459,0.0006853,15.70756179,352.11924078711127,361.35005586830994,1 45362U 20019C   25309.33336806  .00189586  00000+0  14673-2 0  9992,2 45362  53.0459 330.0006 0006853 328.3213 227.0854 15.70756179  5926
STARLINK-1262,45366,53.0556,0.0001894,15.06408688,545.8732746238984,548.4965865712093,1 45366U 20019G   25308.89351443  .00002222  00000+0  16801-3 0  9997,2 45366  53.0556   6.8481 0001894  80.0216 280.0987 15.06408688310921
STARLINK-1273,45367,53.0546,0.0001434,15.06421413,546.1528453824048,548.1390165270022,1 45367U 20019H   25308.58389970  .00009851  00000+0  67893-3 0  9992,2 45367  53.0546   8.2384 0001434  84.5456 275.5696 15.06421413310875
STARLINK-1276,45368,53.0557,0.0001407,15.06404902,546.2221396267942,548.1709284832777,1 45368U 20019J   25308.88614357  .00001769  00000+0  13759-3 0  9998,2 45368  53.0557   6.8845 0001407  84.8293 275.2857 15.06404902310922
STARLINK-1277,45369,53.0553,0.0001288,15.06420413,546.2570189035123,548.0409725760146,1 45369U 20019K   25308.87883155  .00003717  00000+0  26815-3 0  9994,2 45369  53.0553   7.5437 0001288  93.1969 266.9167 15.06420413310919
STARLINK-1281,45370,53.0553,0.0001314,15.06404911,546.2865176487321,548.1064952942315,1 45370U 20019L   25308.87507985 -.00000853  00000+0 -38350-4 0  9998,2 45370  53.0553   6.9355 0001314  81.0474 279.0663 15.06404911310922
STARLINK-1300,45374,53.0543,0.0001507,15.06403821,546.1561988854919,548.2434954112223,1 45374U 20019Q   25308.89720405  .00002665  00000+0  19772-3 0  9995,2 45374  53.0543   6.8316 0001507  91.7580 268.3582 15.06403821310921
STARLINK-1302,45375,53.0544,0.0001452,15.06427654,546.12125540346,548.1323520120559,1 45375U 20019R   25308.58020689  .00010941  00000+0  75167-3 0  9995,2 45375  53.0544   8.2567 0001452  73.3847 286.7301 15.06427654310875
